NORAD_CAT_ID,OBJECT_NAME,OBJECT_TYPE,EPOCH,MEAN_MOTION,ECCENTRICITY,INCLINATION,RA_OF_ASC_NODE,ARG_OF_PERICENTER,MEAN_ANOMALY,BSTAR,MEAN_MOTION_DOT,MEAN_MOTION_DDOT,TLE_LINE0,TLE_LINE1,TLE_LINE2,SEMIMAJOR_AXIS,PERIOD,APOGEE,PERIGEE,DECAYED
53578.0,STARLINK-4556,PAYLOAD,2022-09-12 12:00:00,15.7317386,0.0002166999999999,53.2165,37.3612,32.4168,193.7175,0.00031957,0.00044419,0.0,0 STARLINK-4556,1 53578U 22101BD  22255.50001157  .00044419  00000-0  31957-3 0  9999,2 53578  53.2165  37.3612 0002167  32.4168 193.7175 15.73173860  1302,6727.97,91.535,351.293,348.37699999999984,0.0
53578.0,STARLINK-4556,PAYLOAD,2022-09-12 20:00:01,15.73212161,0.0002365,53.2161,35.7135,25.7672,289.3463,5.653100000000001e-05,7.324e-05,0.0,0 STARLINK-4556,1 53578U 22101BD  22255.83335648  .00007324  00000-0  56531-4 0  9990,2 53578  53.2161  35.7135 0002365  25.7672 289.3463 15.73212161  3802,6727.861,91.532,351.31699999999995,348.134,0.0
53578.0,STARLINK-4556,PAYLOAD,2022-09-12 22:00:00,15.73233577,0.0002351,53.2157,35.3007,24.2638,43.0147,-0.0002791,-0.00039669,0.0,0 STARLINK-4556,1 53578U 22101BD  22255.91667824 -.00039669  00000-0 -27910-3 0  9990,2 53578  53.2157  35.3007 0002351  24.2638  43.0147 15.73233577  1303,6727.799,91.531,351.246,348.083,0.0
53578.0,STARLINK-4556,PAYLOAD,2022-09-13 14:00:01,15.73228871,0.0002254999999999,53.2161,32.0012,20.7593,224.4439,-0.00023741,-0.00033852,0.0,0 STARLINK-4556,1 53578U 22101BD  22256.58334491 -.00033852  00000-0 -23741-3 0  9991,2 53578  53.2161  32.0012 0002255  20.7593 224.4439 15.73228871  1302,6727.813,91.532,351.195,348.161,0.0
53578.0,STARLINK-4556,PAYLOAD,2022-09-13 22:00:00,15.73274388,0.0002471,53.2162,30.3506,17.4612,316.6758,-0.0011704,-0.00162299,0.0,0 STARLINK-4556,1 53578U 22101BD  22256.91667824 -.00162299  00000-0 -11704-2 0  9990,2 53578  53.2162  30.3506 0002471  17.4612 316.6758 15.73274388  1309,6727.683000000001,91.529,351.211,347.886,0.0
53578.0,STARLINK-4556,PAYLOAD,2022-09-14 04:00:00,15.73075652,0.0002409,53.2172,29.1102,28.6338,282.2635,0.00020786,0.00028498,0.0,0 STARLINK-4556,1 53578U 22101BD  22257.16667824  .00028498  00000-0  20786-3 0  9999,2 53578  53.2172  29.1102 0002409  28.6338 282.2635 15.73075652  4014,6728.25,91.54,351.736,348.494,0.0
53578.0,STARLINK-4556,PAYLOAD,2022-09-14 12:00:00,15.73162752,0.0002323999999999,53.2175,27.4606,22.0967,17.5787,0.00048339,0.00067664,0.0,0 STARLINK-4556,1 53578U 22101BD  22257.50001157  .00067664  00000-0  48339-3 0  9990,2 53578  53.2175  27.4606 0002324  22.0967  17.5787 15.73162752  4070,6728.001,91.535,351.43,348.30300000000005,0.0
53578.0,STARLINK-4556,PAYLOAD,2022-09-14 14:00:01,15.73168046,0.0002563,53.2164,27.0529,23.0824,128.8233,0.00030183,0.00041897,0.0,0 STARLINK-4556,1 53578U 22101BD  22257.58334491  .00041897  00000-0  30183-3 0  9996,2 53578  53.2164  27.0529 0002563  23.0824 128.8233 15.73168046  1303,6727.986,91.535,351.576,348.12699999999984,0.0
53578.0,STARLINK-4556,PAYLOAD,2022-09-14 22:00:00,15.7322955,0.0002633,53.2159,25.4039,20.106,220.6966,-1.9392e-05,-3.347e-05,0.0,0 STARLINK-4556,1 53578U 22101BD  22257.91667824 -.00003347  00000-0 -19392-4 0  9992,2 53578  53.2159  25.4039 0002633  20.1060 220.6966 15.73229550  1305,6727.811,91.531,351.44699999999995,347.904,0.0
53578.0,STARLINK-4556,PAYLOAD,2022-09-15 04:00:00,15.73205002,0.0002435999999999,53.2161,24.1652,19.0254,198.5107,0.00017494,0.00024008,0.0,0 STARLINK-4556,1 53578U 22101BD  22258.16667824  .00024008  00000-0  17494-3 0  9995,2 53578  53.2161  24.1652 0002436  19.0254 198.5107 15.73205002  4172,6727.880999999999,91.533,351.385,348.107,0.0
53578.0,STARLINK-4556,PAYLOAD,2022-09-15 14:00:01,15.73188531,0.0002694,53.2162,22.1048,23.1086,35.6055,0.0003138,0.00043631,0.0,0 STARLINK-4556,1 53578U 22101BD  22258.58334491  .00043631  00000-0  31380-3 0  9995,2 53578  53.2162  22.1048 0002694  23.1086  35.6055 15.73188531  1307,6727.928000000001,91.534,351.605,347.98,0.0
53578.0,STARLINK-4556,PAYLOAD,2022-09-15 22:00:00,15.7326083,0.0002786,53.2162,20.4554,19.7563,127.8768,-0.00048027,-0.00067676,0.0,0 STARLINK-4556,1 53578U 22101BD  22258.91667824 -.00067676  00000-0 -48027-3 0  9994,2 53578  53.2162  20.4554 0002786  19.7563 127.8768 15.73260830  4292,6727.722,91.53,351.461,347.712,0.0
53578.0,STARLINK-4556,PAYLOAD,2022-09-16 14:00:01,15.73200462,0.0002796,53.2164,17.1561,13.3775,312.1657,3.3685e-06,-1.5e-06,0.0,0 STARLINK-4556,1 53578U 22101BD  22259.58334491 -.00000150  00000-0  33685-5 0  9998,2 53578  53.2164  17.1561 0002796  13.3775 312.1657 15.73200462  1301,6727.894,91.533,351.64,347.87800000000016,0.0
53578.0,STARLINK-4556,PAYLOAD,2022-09-16 22:00:00,15.7320089,0.0002849,53.2159,15.5065,10.3442,44.1308,-0.00010876,-0.00015861,0.0,0 STARLINK-4556,1 53578U 22101BD  22259.91667824 -.00015861  00000-0 -10876-3 0  9995,2 53578  53.2159  15.5065 0002849  10.3442  44.1308 15.73200890  1303,6727.893,91.533,351.6740000000001,347.841,0.0
53578.0,STARLINK-4556,PAYLOAD,2022-09-17 14:00:01,15.73173483,0.000297,53.2162,12.2079,15.1162,217.2192,0.00031528,0.00043814,0.0,0 STARLINK-4556,1 53578U 22101BD  22260.58334491  .00043814  00000-0  31528-3 0  9995,2 53578  53.2162  12.2079 0002970  15.1162 217.2192 15.73173483  1304,6727.971,91.535,351.834,347.838,0.0
53578.0,STARLINK-4556,PAYLOAD,2022-09-17 22:00:00,15.732485,0.0002995,53.2163,10.558,12.0902,309.1513,-0.00055674,-0.00078218,0.0,0 STARLINK-4556,1 53578U 22101BD  22260.91667824 -.00078218  00000-0 -55674-3 0  9997,2 53578  53.2163  10.5580 0002995  12.0902 309.1513 15.73248500  1309,6727.757,91.53,351.63699999999994,347.607,0.0
53578.0,STARLINK-4556,PAYLOAD,2022-09-18 14:00:01,15.73260435,0.0003145,53.2165,7.2591,11.7976,127.3876,-0.00030668,-0.00043565,0.0,0 STARLINK-4556,1 53578U 22101BD  22261.58335648 -.00043565  00000-0 -30668-3 0  9990,2 53578  53.2165   7.2591 0003145  11.7976 127.3876 15.73260435  4712,6727.723000000001,91.53,351.704,347.472,0.0
53578.0,STARLINK-4556,PAYLOAD,2022-09-18 22:00:00,15.73247177,0.0003114,53.2161,5.609,7.5409,220.5591,-0.0002928999999999,-0.00041621,0.0,0 STARLINK-4556,1 53578U 22101BD  22261.91667824 -.00041621  00000-0 -29290-3 0  9991,2 53578  53.2161   5.6090 0003114   7.5409 220.5591 15.73247177  1304,6727.761,91.53,351.721,347.531,0.0
53578.0,STARLINK-4556,PAYLOAD,2022-09-19 06:00:02,15.73202134,0.0002951,53.2163,3.958,7.4179,309.7232,0.00020711,0.00028551,0.0,0 STARLINK-4556,1 53578U 22101BD  22262.25002315  .00028551  00000-0  20711-3 0  9991,2 53578  53.2163   3.9580 0002951   7.4179 309.7232 15.73202134  4817,6727.889,91.533,351.73900000000015,347.769,0.0
53578.0,STARLINK-4556,PAYLOAD,2022-09-19 14:00:01,15.73191536,0.0003229,53.2162,2.3106,8.7442,37.2825,8.842299999999999e-05,0.00011802,0.0,0 STARLINK-4556,1 53578U 22101BD  22262.58334491  .00011802  00000-0  88423-4 0  9996,2 53578  53.2162   2.3106 0003229   8.7442  37.2825 15.73191536  1304,6727.919,91.534,351.957,347.612,0.0
53578.0,STARLINK-4556,PAYLOAD,2022-09-19 22:00:00,15.73211474,0.0003281,53.2165,0.6603,6.978,127.9539,-0.00046123,-0.00064909,0.0,0 STARLINK-4556,1 53578U 22101BD  22262.91667824 -.00064909  00000-0 -46123-3 0  9990,2 53578  53.2165   0.6603 0003281   6.9780 127.9539 15.73211474  4927,6727.861999999999,91.533,351.935,347.52,0.0
53578.0,STARLINK-4556,PAYLOAD,2022-09-20 06:00:00,15.73202461,0.000315,53.2169,359.0093,9.7366,214.1156,0.00010479,0.00014113,0.0,0 STARLINK-4556,1 53578U 22101BD  22263.25001157  .00014113  00000-0  10479-3 0  9994,2 53578  53.2169 359.0093 0003150   9.7366 214.1156 15.73202461  4976,6727.888000000001,91.533,351.872,347.634,0.0
53578.0,STARLINK-4556,PAYLOAD,2022-09-20 14:00:01,15.73168612,0.0003558,53.2169,357.3619,12.8209,299.9808,0.00034753,0.0004838,0.0,0 STARLINK-4556,1 53578U 22101BD  22263.58334491  .00048380  00000-0  34753-3 0  9994,2 53578  53.2169 357.3619 0003558  12.8209 299.9808 15.73168612  1302,6727.985,91.535,352.24300000000005,347.456,0.0
53578.0,STARLINK-4556,PAYLOAD,2022-09-20 22:00:01,15.73233193,0.0003508,53.2168,355.7105,12.3524,29.4059,-9.0748e-05,-0.00013362,0.0,0 STARLINK-4556,1 53578U 22101BD  22263.91668981 -.00013362  00000-0 -90748-4 0  9996,2 53578  53.2168 355.7105 0003508  12.3524  29.4059 15.73233193  5083,6727.801,91.531,352.026,347.305,0.0
53578.0,STARLINK-4556,PAYLOAD,2022-09-21 22:00:00,15.73234967,0.0003551,53.2169,350.7629,5.9852,302.5533,-0.0006394,-0.0008958,0.0,0 STARLINK-4556,1 53578U 22101BD  22264.91667824 -.00089580  00000-0 -63940-3 0  9990,2 53578  53.2169 350.7629 0003551   5.9852 302.5533 15.73234967  1303,6727.795,91.531,352.05,347.271,0.0
53578.0,STARLINK-4556,PAYLOAD,2022-09-22 06:00:00,15.73219552,0.0003466,53.2173,349.1090000000001,7.1992,30.2652,-0.00085651,-0.00119288,0.0,0 STARLINK-4556,1 53578U 22101BD  22265.25001157 -.00119288  00000-0 -85651-3 0  9991,2 53578  53.2173 349.1090 0003466   7.1992  30.2652 15.73219552  5298,6727.839,91.532,352.036,347.37300000000016,0.0
53578.0,STARLINK-4556,PAYLOAD,2022-09-22 14:00:01,15.73136902,0.0003868999999999,53.2173,347.4653,10.5509,115.8454,0.00032892,0.00045681,0.0,0 STARLINK-4556,1 53578U 22101BD  22265.58334491  .00045681  00000-0  32892-3 0  9999,2 53578  53.2173 347.4653 0003869  10.5509 115.8454 15.73136902  1308,6728.075,91.537,352.543,347.337,0.0
53578.0,STARLINK-4556,PAYLOAD,2022-09-22 22:00:00,15.73187046,0.0003792,53.2169,345.8148,10.5841,204.6797,6.3773e-05,8.333e-05,0.0,0 STARLINK-4556,1 53578U 22101BD  22265.91667824  .00008333  00000-0  63773-4 0  9991,2 53578  53.2169 345.8148 0003792  10.5841 204.6797 15.73187046  1300,6727.932,91.534,352.348,347.246,0.0
53578.0,STARLINK-4556,PAYLOAD,2022-09-23 14:00:01,15.73199614,0.000379,53.2175,342.5115,7.5816,25.5358,5.1553e-05,6.619e-05,0.0,0 STARLINK-4556,1 53578U 22101BD  22266.58334491  .00006619  00000-0  51553-4 0  9994,2 53578  53.2175 342.5115 0003790   7.5816  25.5358 15.73199614  1308,6727.896,91.533,352.311,347.211,0.0
